[{"OBJECT_NAME":"COSMOS 2544 (759)","OBJECT_ID":"2019-088A","EPOCH":"2026-04-02T11:28:37.465824","MEAN_MOTION":2.13086826,"ECCENTRICITY":0.00130768,"INCLINATION":65.5087,"RA_OF_ASC_NODE":76.2399,"ARG_OF_PERICENTER":256.6381,"MEAN_ANOMALY":103.2057,"EPHEMERIS_TYPE":0,"CLASSIFICATION_TYPE":"U","NORAD_CAT_ID":44850,"ELEMENT_SET_NO":999,"REV_AT_EPOCH":4910,"BSTAR":0,"MEAN_MOTION_DOT":1.0e-8,"MEAN_MOTION_DDOT":0},{"OBJECT_NAME":"BEIDOU-3 M19 (C41)","OBJECT_ID":"2019-090A","EPOCH":"2026-04-05T16:55:57.120672","MEAN_MOTION":1.86231691,"ECCENTRICITY":0.002028,"INCLINATION":56.4979,"RA_OF_ASC_NODE":65.1844,"ARG_OF_PERICENTER":293.9957,"MEAN_ANOMALY":244.6668,"EPHEMERIS_TYPE":0,"CLASSIFICATION_TYPE":"U","NORAD_CAT_ID":44864,"ELEMENT_SET_NO":999,"REV_AT_EPOCH":4288,"BSTAR":0,"MEAN_MOTION_DOT":-3.4e-7,"MEAN_MOTION_DDOT":0},{"OBJECT_NAME":"BEIDOU-3 M20 (C42)","OBJECT_ID":"2019-090B","EPOCH":"2026-04-05T13:44:22.867296","MEAN_MOTION":1.86231595,"ECCENTRICITY":0.0017785,"INCLINATION":56.4994,"RA_OF_ASC_NODE":65.223,"ARG_OF_PERICENTER":305.7486,"MEAN_ANOMALY":233.3254,"EPHEMERIS_TYPE":0,"CLASSIFICATION_TYPE":"U","NORAD_CAT_ID":44865,"ELEMENT_SET_NO":999,"REV_AT_EPOCH":4286,"BSTAR":0,"MEAN_MOTION_DOT":-3.5e-7,"MEAN_MOTION_DDOT":0},{"OBJECT_NAME":"BEIDOU-3 G2 (C60)","OBJECT_ID":"2020-017A","EPOCH":"2026-04-05T21:42:21.696192","MEAN_MOTION":1.00272127,"ECCENTRICITY":0.0002873,"INCLINATION":2.7196,"RA_OF_ASC_NODE":46.1612,"ARG_OF_PERICENTER":338.5909,"MEAN_ANOMALY":215.0832,"EPHEMERIS_TYPE":0,"CLASSIFICATION_TYPE":"U","NORAD_CAT_ID":45344,"ELEMENT_SET_NO":999,"REV_AT_EPOCH":2253,"BSTAR":0,"MEAN_MOTION_DOT":-1.38e-6,"MEAN_MOTION_DDOT":0},{"OBJECT_NAME":"COSMOS 2545 (760)","OBJECT_ID":"2020-018A","EPOCH":"2026-03-31T07:51:28.166112","MEAN_MOTION":2.13102306,"ECCENTRICITY":0.000733,"INCLINATION":64.4015,"RA_OF_ASC_NODE":315.1566,"ARG_OF_PERICENTER":245.6005,"MEAN_ANOMALY":114.3786,"EPHEMERIS_TYPE":0,"CLASSIFICATION_TYPE":"U","NORAD_CAT_ID":45358,"ELEMENT_SET_NO":999,"REV_AT_EPOCH":4700,"BSTAR":0,"MEAN_MOTION_DOT":-3.4e-7,"MEAN_MOTION_DDOT":0},{"OBJECT_NAME":"BEIDOU-3 G3 (C61)","OBJECT_ID":"2020-040A","EPOCH":"2026-04-05T18:24:18.647136","MEAN_MOTION":1.00269472,"ECCENTRICITY":0.0004619,"INCLINATION":2.2698,"RA_OF_ASC_NODE":67.2276,"ARG_OF_PERICENTER":329.1984,"MEAN_ANOMALY":184.2648,"EPHEMERIS_TYPE":0,"CLASSIFICATION_TYPE":"U","NORAD_CAT_ID":45807,"ELEMENT_SET_NO":999,"REV_AT_EPOCH":2134,"BSTAR":0,"MEAN_MOTION_DOT":-3.51e-6,"MEAN_MOTION_DDOT":0},{"OBJECT_NAME":"GPS BIII-3  (PRN 23)","OBJECT_ID":"2020-041A","EPOCH":"2026-04-05T16:36:27.777024","MEAN_MOTION":2.00560346,"ECCENTRICITY":0.00618,"INCLINATION":56.6261,"RA_OF_ASC_NODE":31.7566,"ARG_OF_PERICENTER":205.1302,"MEAN_ANOMALY":336.9671,"EPHEMERIS_TYPE":0,"CLASSIFICATION_TYPE":"U","NORAD_CAT_ID":45854,"ELEMENT_SET_NO":999,"REV_AT_EPOCH":4258,"BSTAR":0,"MEAN_MOTION_DOT":-8.3e-7,"MEAN_MOTION_DDOT":0},{"OBJECT_NAME":"GALAXY 30 (WAAS/PRN 135)","OBJECT_ID":"2020-056C","EPOCH":"2026-04-05T17:17:10.087296","MEAN_MOTION":1.00271383,"ECCENTRICITY":0.0002368,"INCLINATION":0.0146,"RA_OF_ASC_NODE":195.6358,"ARG_OF_PERICENTER":186.1086,"MEAN_ANOMALY":306.557,"EPHEMERIS_TYPE":0,"CLASSIFICATION_TYPE":"U","NORAD_CAT_ID":46114,"ELEMENT_SET_NO":999,"REV_AT_EPOCH":2056,"BSTAR":0,"MEAN_MOTION_DOT":0,"MEAN_MOTION_DDOT":0},{"OBJECT_NAME":"COSMOS 2547 (705K)","OBJECT_ID":"2020-075A","EPOCH":"2026-03-27T18:17:20.941152","MEAN_MOTION":2.13100219,"ECCENTRICITY":0.00073709,"INCLINATION":64.5985,"RA_OF_ASC_NODE":195.1905,"ARG_OF_PERICENTER":232.5213,"MEAN_ANOMALY":127.4084,"EPHEMERIS_TYPE":0,"CLASSIFICATION_TYPE":"U","NORAD_CAT_ID":46805,"ELEMENT_SET_NO":999,"REV_AT_EPOCH":4217,"BSTAR":0,"MEAN_MOTION_DOT":-3.1e-7,"MEAN_MOTION_DDOT":0},{"OBJECT_NAME":"GPS BIII-4  (PRN 14)","OBJECT_ID":"2020-078A","EPOCH":"2026-04-05T17:05:03.802848","MEAN_MOTION":2.00565249,"ECCENTRICITY":0.0069971,"INCLINATION":53.9938,"RA_OF_ASC_NODE":213.7167,"ARG_OF_PERICENTER":205.1796,"MEAN_ANOMALY":325.3931,"EPHEMERIS_TYPE":0,"CLASSIFICATION_TYPE":"U","NORAD_CAT_ID":46826,"ELEMENT_SET_NO":999,"REV_AT_EPOCH":4005,"BSTAR":0,"MEAN_MOTION_DOT":6.0e-8,"MEAN_MOTION_DDOT":0},{"OBJECT_NAME":"GPS BIII-5  (PRN 11)","OBJECT_ID":"2021-054A","EPOCH":"2026-03-28T01:21:33.319296","MEAN_MOTION":2.00573996,"ECCENTRICITY":0.0023817,"INCLINATION":55.2101,"RA_OF_ASC_NODE":335.7223,"ARG_OF_PERICENTER":231.1961,"MEAN_ANOMALY":354.6747,"EPHEMERIS_TYPE":0,"CLASSIFICATION_TYPE":"U","NORAD_CAT_ID":48859,"ELEMENT_SET_NO":999,"REV_AT_EPOCH":3512,"BSTAR":0,"MEAN_MOTION_DOT":-8.8e-7,"MEAN_MOTION_DDOT":0},{"OBJECT_NAME":"QZS-1R (QZSS/PRN 196)","OBJECT_ID":"2021-096A","EPOCH":"2026-04-05T20:11:24.907200","MEAN_MOTION":1.00280626,"ECCENTRICITY":0.0750144,"INCLINATION":37.3138,"RA_OF_ASC_NODE":80.6479,"ARG_OF_PERICENTER":270.4087,"MEAN_ANOMALY":281.4223,"EPHEMERIS_TYPE":0,"CLASSIFICATION_TYPE":"U","NORAD_CAT_ID":49336,"ELEMENT_SET_NO":999,"REV_AT_EPOCH":1628,"BSTAR":0,"MEAN_MOTION_DOT":-2.37e-6,"MEAN_MOTION_DDOT":0},{"OBJECT_NAME":"GSAT0223 (GALILEO 27)","OBJECT_ID":"2021-116A","EPOCH":"2026-04-04T22:59:50.619264","MEAN_MOTION":1.70475996,"ECCENTRICITY":0.00012633,"INCLINATION":57.1835,"RA_OF_ASC_NODE":343.6546,"ARG_OF_PERICENTER":288.2502,"MEAN_ANOMALY":249.3367,"EPHEMERIS_TYPE":0,"CLASSIFICATION_TYPE":"U","NORAD_CAT_ID":49809,"ELEMENT_SET_NO":999,"REV_AT_EPOCH":2693,"BSTAR":0,"MEAN_MOTION_DOT":-9.3e-7,"MEAN_MOTION_DDOT":0},{"OBJECT_NAME":"GSAT0224 (GALILEO 28)","OBJECT_ID":"2021-116B","EPOCH":"2026-04-05T08:39:38.507904","MEAN_MOTION":1.70476035,"ECCENTRICITY":0.00011776,"INCLINATION":57.1848,"RA_OF_ASC_NODE":343.6426,"ARG_OF_PERICENTER":35.048,"MEAN_ANOMALY":142.2428,"EPHEMERIS_TYPE":0,"CLASSIFICATION_TYPE":"U","NORAD_CAT_ID":49810,"ELEMENT_SET_NO":999,"REV_AT_EPOCH":2696,"BSTAR":0,"MEAN_MOTION_DOT":-9.2e-7,"MEAN_MOTION_DDOT":0},{"OBJECT_NAME":"COSMOS 2557 (706K)","OBJECT_ID":"2022-075A","EPOCH":"2026-04-05T08:58:05.712672","MEAN_MOTION":2.13102008,"ECCENTRICITY":0.001073,"INCLINATION":64.3402,"RA_OF_ASC_NODE":317.0513,"ARG_OF_PERICENTER":283.4282,"MEAN_ANOMALY":76.499,"EPHEMERIS_TYPE":0,"CLASSIFICATION_TYPE":"U","NORAD_CAT_ID":52984,"ELEMENT_SET_NO":999,"REV_AT_EPOCH":2916,"BSTAR":0,"MEAN_MOTION_DOT":-4.7e-7,"MEAN_MOTION_DDOT":0},{"OBJECT_NAME":"COSMOS 2559 (707K)","OBJECT_ID":"2022-130A","EPOCH":"2026-04-02T09:03:42.068736","MEAN_MOTION":2.13101452,"ECCENTRICITY":0.00108595,"INCLINATION":64.3149,"RA_OF_ASC_NODE":317.2428,"ARG_OF_PERICENTER":177.921,"MEAN_ANOMALY":182.137,"EPHEMERIS_TYPE":0,"CLASSIFICATION_TYPE":"U","NORAD_CAT_ID":54031,"ELEMENT_SET_NO":999,"REV_AT_EPOCH":2707,"BSTAR":0,"MEAN_MOTION_DOT":-4.6e-7,"MEAN_MOTION_DDOT":0},{"OBJECT_NAME":"COSMOS 2564 (761)","OBJECT_ID":"2022-161A","EPOCH":"2026-04-05T12:08:24.376416","MEAN_MOTION":2.13102031,"ECCENTRICITY":0.0010383,"INCLINATION":64.7398,"RA_OF_ASC_NODE":195.1226,"ARG_OF_PERICENTER":216.1285,"MEAN_ANOMALY":143.8305,"EPHEMERIS_TYPE":0,"CLASSIFICATION_TYPE":"U","NORAD_CAT_ID":54377,"ELEMENT_SET_NO":999,"REV_AT_EPOCH":2608,"BSTAR":0,"MEAN_MOTION_DOT":1.7e-7,"MEAN_MOTION_DDOT":0}]
